C/2019 N1 (ATLAS),e,82.4270,13.5732,193.4456,21184,0.0000003,0.99991953,0.0000,12/01.8047/2020,2000,g  7.5,4.0
# From MPEC 2020-SI8
C/2019 NJ3 (Lemmon),h,10/22.2695/2020,99.4386,142.4551,246.8392,1.000796,4.361646,2000,9.0,4.0
# From MPEC 2020-SI8
A/2019 O2,e,93.2863,48.3258,129.6501,57.37416,0.0022679,0.83122344,357.9351,10/09.0/2020,2000,g  9.5,2.0
# From MPEC 2020-SI8
C/2019 O3 (Palomar),h,03/07.5943/2021,89.8149,300.3804,60.0291,1.001879,8.819549,2000,3.5,4.0
# From MPEC 2020-SI8
A/2019 O4,e,115.0857,354.9194,61.8240,32.85644,0.0052333,0.88907311,1.2664,10/09.0/2020,2000,g 15.5,2.0
# From MPEC 2020-SI8
C/2019 Q1 (Lemmon),h,07/19.8423/2020,155.7221,42.3404,55.9432,1.000975,4.997090,2000,8.5,4.0
# From MPEC 2020-SI8
A/2019 Q2,e,159.0212,188.0466,176.3206,59.60455,0.0021418,0.97891368,0.0000,07/22.3555/2019,2000,g 18.0,2.0
# From MPEC 2020-SI8
C/2019 S4 (Lemmon),e,92.0251,63.1657,71.3592,237.7949,0.0002688,0.98552615,0.0000,04/07.9532/2020,2000,g 11.0,4.0
# From MPEC 2020-SI8
A/2019 T1,e,120.8695,6.9521,91.0190,38.26356,0.0041641,0.88810153,359.5953,10/09.0/2020,2000,g 13.0,2.0
# From MPEC 2020-SI8
C/2019 T2 (Lemmon),e,111.4763,155.6371,239.3821,2840,0.0000065,0.99906819,0.0000,04/22.2610/2021,2000,g  9.0,4.0
# From MPEC 2020-SI8
C/2019 T3 (ATLAS),e,121.8626,139.5193,112.2649,4328,0.0000035,0.99862603,0.0000,03/02.5818/2021,2000,g  6.8,4.0
# From MPEC 2020-SI8
A/2019 U5,h,03/30.3836/2023,113.5179,2.6596,181.5877,1.000230,3.622159,2000,10.0,2.0
# From MPEC 2020-SI8
C/2019 U6 (Lemmon),e,61.0003,235.7043,329.6602,432.2826,0.0001097,0.99788506,0.0000,06/18.8218/2020,2000,g 10.0,4.0
# From MPEC 2020-SI8
C/2019 U6 (Lemmon),e,61.0003,235.7043,329.6602,432.2826,0.0001097,0.99788506,0.0000,06/18.8218/2020,2000,g 10.0,4.0
# From MPEC 2020-SI8
C/2019 Y1 (ATLAS),e,73.3511,31.3653,57.4959,230.8947,0.0002809,0.99637145,0.0000,03/15.5583/2020,2000,g 13.7,4.0
# From MPEC 2020-SI8
C/2020 A2 (Iwamoto),e,120.7487,286.3784,68.2139,1339,0.0000201,0.99926945,0.0000,01/08.3391/2020,2000,g 13.5,4.0
# From MPEC 2020-SI8
C/2020 F2 (ATLAS),h,07/16.6636/2022,163.5751,250.2506,48.3719,1.002448,8.817074,2000,4.5,4.0
# From MPEC 2020-SI8
C/2020 F3 (NEOWISE),e,128.9352,61.0114,37.2785,362.2352,0.0001430,0.99918661,0.0000,07/03.6793/2020,2000,g  7.5,5.2
# From MPEC 2020-SI8
C/2020 F5 (MASTER),h,03/24.1514/2021,51.7026,350.6394,311.0414,1.002631,4.326382,2000,6.5,3.2
# From MPEC 2020-SI8
C/2020 H3 (Wierzchos),h,06/03.5565/2020,62.3672,270.5679,29.6061,1.001942,2.304386,2000,13.0,4.0
# From MPEC 2020-SI8
C/2020 H3 (Wierzchos),h,06/03.5565/2020,62.3672,270.5679,29.6061,1.001942,2.304386,2000,13.0,4.0
# From MPEC 2020-SI8
C/2020 H7 (Lemmon),e,135.9229,323.5283,82.7833,8140,0.0000013,0.99945698,0.0000,06/03.6070/2020,2000,g 11.0,4.0
# From MPEC 2020-SI8
C/2020 H7 (Lemmon),e,135.9229,323.5283,82.7833,8140,0.0000013,0.99945698,0.0000,06/03.6070/2020,2000,g 11.0,4.0
# From MPEC 2020-SI8
C/2020 H8 (PANSTARRS),e,99.6453,68.4081,128.9109,613.4662,0.0000649,0.99238002,0.0000,06/04.3060/2020,2000,g 10.5,4.0
# From MPEC 2020-SI8
C/2020 H8 (PANSTARRS),e,99.6453,68.4081,128.9109,613.4662,0.0000649,0.99238002,0.0000,06/04.3060/2020,2000,g 10.5,4.0
# From MPEC 2020-SI8
C/2020 J1 (SONEAR),h,04/18.4636/2021,142.2987,226.5716,341.7171,1.000565,3.355409,2000,8.5,3.2
# From MPEC 2020-SI8
C/2020 K1 (PANSTARRS),e,89.6500,94.3766,213.9340,9175,0.0000011,0.99966472,0.0000,05/09.1564/2023,2000,g  5.5,4.0
# From MPEC 2020-SI8
C/2020 K2 (PANSTARRS),h,08/04.4799/2020,91.0379,288.3433,67.2603,1.001820,8.878510,2000,6.5,4.0
# From MPEC 2020-SI8
C/2020 K3 (Leonard),e,128.7148,27.9301,62.7008,209.9569,0.0003240,0.99241052,0.0000,05/30.1233/2020,2000,g 14.5,4.0
# From MPEC 2020-SI8
C/2020 K3 (Leonard),e,128.7148,27.9301,62.7008,209.9569,0.0003240,0.99241052,0.0000,05/30.1233/2020,2000,g 14.5,4.0
# From MPEC 2020-SI8
C/2020 K4 (PANSTARRS),e,125.9116,264.1042,310.2820,45.52585,0.0032086,0.96106338,0.6947,10/09.0/2020,2000,g 16.5,4.0
# From MPEC 2020-SI8
C/2020 K5 (PANSTARRS),h,06/05.5976/2021,67.1594,86.1654,249.6027,1.001315,1.535410,2000,11.0,4.0
# From MPEC 2020-SI8
C/2020 K6 (Rankin),h,09/14.1418/2021,103.6760,291.5335,44.1811,1.005682,5.870843,2000,8.0,4.0
# From MPEC 2020-SI8
C/2020 K7 (PANSTARRS),e,32.0639,286.1073,358.1754,107.5656,0.0008835,0.94064052,0.3055,10/09.0/2020,2000,g  8.0,4.0
# From MPEC 2020-SI8
C/2020 K8 (Catalina-ATLAS),h,09/14.5161/2020,31.4135,181.5193,260.0552,1.000321,0.474612,2000,15.0,3.2
# From MPEC 2020-N31
P/2019 LM4 (Palomar),e,36.3925,72.8596,68.3869,5.716965,0.0721034,0.58505094,34.5215,10/09.0/2020,2000,g  9.5,4.0
# From MPEC 2020-N31
C/2019 N1 (ATLAS),e,82.4270,13.5734,193.4463,20296,0.0000003,0.99991602,0.0000,12/01.8040/2020,2000,g  7.5,4.0
# From MPEC 2020-N31
A/2019 O2,e,93.2863,48.3257,129.6496,57.37534,0.0022679,0.83122644,357.9351,10/09.0/2020,2000,g  9.5,2.0
# From MPEC 2020-N31
A/2019 O3,h,03/07.5711/2021,89.8150,300.3805,60.0277,1.001845,8.819567,2000,10.5,2.0
# From MPEC 2020-N31
A/2019 O4,e,115.0857,354.9194,61.8239,32.85766,0.0052330,0.88907715,1.2663,10/09.0/2020,2000,g 15.5,2.0
# From MPEC 2020-N31
C/2019 S4 (Lemmon),e,92.0252,63.1657,71.3596,237.6021,0.0002691,0.98551445,0.0000,04/07.9555/2020,2000,g 11.0,4.0
# From MPEC 2020-N31
A/2019 T1,e,120.8695,6.9521,91.0186,38.26579,0.0041638,0.88810768,359.5953,10/09.0/2020,2000,g 13.0,2.0
# From MPEC 2020-N31
C/2019 T2 (Lemmon),e,111.4764,155.6372,239.3828,2637,0.0000073,0.99899664,0.0000,04/22.2764/2021,2000,g  9.0,4.0
# From MPEC 2020-N31
C/2019 T3 (ATLAS),e,121.8626,139.5193,112.2640,4259,0.0000035,0.99860366,0.0000,03/02.5759/2021,2000,g  6.8,4.0
# From MPEC 2020-N31
A/2019 U5,h,03/30.3659/2023,113.5179,2.6596,181.5874,1.000253,3.622119,2000,10.0,2.0
# From MPEC 2020-N31
C/2019 U6 (Lemmon),e,61.0003,235.7045,329.6607,430.7218,0.0001103,0.99787742,0.0000,06/18.8217/2020,2000,g 10.0,4.0
# From MPEC 2020-N31
C/2019 Y1 (ATLAS),e,73.3510,31.3653,57.4959,230.8353,0.0002810,0.99637051,0.0000,03/15.5583/2020,2000,g 13.7,4.0
# From MPC118843
P/2019 M2 (ATLAS),e,12.2821,307.5966,332.5582,3.026398,0.1872040,0.64839889,88.7985,10/09.0/2020,2000,g 21.2,4.0
# From MPC118095
C/2019 M3 (ATLAS),h,01/02.8487/2019,99.4547,154.8979,87.9384,1.001557,2.418793,2000,12.2,4.0
# From MPC119997
C/2019 N1 (ATLAS),e,82.4269,13.5728,193.4460,36181,0.0000001,0.99995289,0.0000,12/01.7889/2020,2000,g  7.5,4.0
# From MPEC 2020-P41
C/2019 NJ3 (Lemmon),h,10/22.2660/2020,99.4386,142.4551,246.8387,1.000816,4.361669,2000,9.0,4.0
# From MPEC 2020-AA5
A/2019 O2,e,93.2860,48.3238,129.6760,57.38638,0.0022672,0.83129730,357.9348,10/09.0/2020,2000,g  9.5,2.0
# From MPC118843
A/2019 O3,h,03/07.8476/2021,89.8124,300.3790,60.0458,1.001961,8.818551,2000,10.0,2.0
# From MPC117072
A/2019 O4,e,115.0856,354.9194,61.8238,32.85002,0.0052348,0.88905090,1.2668,10/09.0/2020,2000,g 15.5,2.0
# From MPEC 2020-AA5
A/2019 Q1,h,07/19.9368/2020,155.7203,42.3383,55.9515,1.000497,4.996723,2000,12.5,2.0
# From MPC117072
A/2019 Q2,e,159.0200,188.0415,176.2985,57.47150,0.0022622,0.97813294,0.0000,07/22.3328/2019,2000,g 18.0,2.0
# From MPC117072
C/2019 Q3 (PANSTARRS),h,08/21.2669/2018,65.5278,151.3241,152.6716,1.004309,7.252594,2000,8.5,4.0
# From MPC117072
P/2019 S2 (PANSTARRS),e,10.4731,93.1284,216.8276,4.735697,0.0956375,0.20680705,56.9642,10/09.0/2020,2000,g 13.5,4.0
# From MPC118096
P/2019 S3 (PANSTARRS),e,8.6933,150.1615,212.9772,3.414582,0.1562060,0.47087669,64.0174,10/09.0/2020,2000,g 18.3,4.0
# From MPEC 2020-AA5
A/2019 S4,e,92.0238,63.1645,71.3613,235.2290,0.0002732,0.98536866,0.0000,04/07.9651/2020,2000,g 14.5,2.0
# From MPC118843
A/2019 T1,e,120.8695,6.9521,91.0190,38.26287,0.0041643,0.88809948,359.5953,10/09.0/2020,2000,g 13.0,2.0
# From MPEC 2020-AA5
A/2019 T2,e,111.4749,155.6385,239.3872,2636,0.0000073,0.99899623,0.0000,04/22.2624/2021,2000,g 12.5,2.0
# From MPC119998
C/2019 T3 (ATLAS),e,121.8626,139.5196,112.2679,5035,0.0000028,0.99881897,0.0000,03/02.5854/2021,2000,g  6.8,4.0
# From MPC119998
C/2019 T4 (ATLAS),e,53.6172,199.9620,351.2149,1007,0.0000308,0.99578901,0.0000,06/09.3730/2022,2000,g  5.0,4.0
# From MPC119998
P/2019 T5 (ATLAS),e,33.4249,247.6896,189.6009,8.010070,0.0434760,0.80918975,18.9069,10/09.0/2020,2000,g 15.0,4.0
# From MPC119998
P/2019 T6 (PANSTARRS),e,18.6953,71.3063,328.9070,5.434007,0.0778079,0.62243717,26.1614,10/09.0/2020,2000,g 15.5,4.0
# From MPC118096
P/2019 U4 (PANSTARRS),e,11.6910,200.0261,180.9657,3.520468,0.1492119,0.47540878,57.6876,10/09.0/2020,2000,g 19.0,4.0
# From MPC118844
A/2019 U5,h,03/30.2911/2023,113.5252,2.6857,181.6024,1.000662,3.621136,2000,10.0,2.0
# From MPEC 2020-AA5
C/2019 U6,e,61.0006,235.7046,329.6607,430.0590,0.0001105,0.99787414,0.0000,06/18.8225/2020,2000,g 14.5,2.0
# From MPC119998
C/2019 V1 (Borisov),e,61.8626,83.2036,51.1944,2137,0.0000100,0.99855063,0.0000,07/16.5505/2020,2000,g 11.0,4.0
# From MPC119998
P/2019 V2 (Groeller),e,11.8044,189.1626,336.3539,7.514331,0.0478485,0.33239964,359.3361,10/09.0/2020,2000,g 10.0,4.0
# From MPC119998
P/2019 W1 (PANSTARRS),e,23.4602,35.4082,18.7142,4.550456,0.1015364,0.26620696,52.8201,10/09.0/2020,2000,g 12.9,4.0
# From MPC119998
P/2019 X1 (Pruyne),e,10.2446,43.7070,36.6064,6.177456,0.0641933,0.30345036,28.7063,10/09.0/2020,2000,g 10.4,4.0
# From MPC119999
C/2019 Y1 (ATLAS),e,73.2540,31.5185,57.9758,86.24236,0.0012306,0.99035769,0.0000,03/15.5948/2020,2000,g 13.7,4.0
# From MPEC 2020-N31
P/2019 Y2 (Fuls),e,4.8961,80.8373,92.3591,3.454730,0.1534910,0.38487524,38.5459,10/09.0/2020,2000,g 13.2,4.0
# From MPEC 2020-N31
A/2020 A1,e,149.0352,119.2919,302.6081,24.65891,0.0080490,0.93228539,2.5066,10/09.0/2020,2000,g 18.0,2.0
# From MPEC 2020-L06
C/2019 Y4 (ATLAS),e,45.3829,120.5719,177.3063,532.4707,0.0000802,0.99952502,0.0000,05/31.0583/2020,2000,g 11.8,6.0
# From MPEC 2020-L06
C/2019 Y4-A (ATLAS),h,05/31.0417/2020,45.8246,120.9281,177.2489,1.001340,0.251042,2000,11.6,6.0
# From MPEC 2020-L06
C/2019 Y4-B (ATLAS),e,45.4593,120.6240,177.3823,1075,0.0000280,0.99976495,0.0000,05/31.0204/2020,2000,g 12.8,6.0
# From MPEC 2020-L06
